{
  "type": "FeatureCollection",
  "features": [
    {
      "type": "Feature",
      "properties": {
        "name": "Kaohsiung→Sihanoukville",
        "distance_km": 2222.8726130419136
      },
      "geometry": {
        "type": "LineString",
        "coordinates": [
          [
            120.26631100057529,
            22.615675766290686
          ],
          [
            115.72121192037297,
            19.649059443410824
          ],
          [
            112.6099307838687,
            17.48440712871723
          ],
          [
            109.60540536387659,
            15.292541404188734
          ],
          [
            103.52571861824896,
            10.604164604011338
          ]
        ]
      }
    }
  ]
}